[{"OBJECT_NAME":"DONGPO 08","OBJECT_ID":"2022-167E","EPOCH":"2026-03-09T22:57:52.742880","MEAN_MOTION":15.31542505,"ECCENTRICITY":0.00092155,"INCLINATION":97.6764,"RA_OF_ASC_NODE":233.3854,"ARG_OF_PERICENTER":153.9158,"MEAN_ANOMALY":206.2548,"EPHEMERIS_TYPE":0,"CLASSIFICATION_TYPE":"U","NORAD_CAT_ID":54686,"ELEMENT_SET_NO":999,"REV_AT_EPOCH":18012,"BSTAR":0.0004734784,"MEAN_MOTION_DOT":0.0001437,"MEAN_MOTION_DDOT":0},{"OBJECT_NAME":"STARLINK-33871","OBJECT_ID":"2025-101A","EPOCH":"2026-03-09T04:19:45.735744","MEAN_MOTION":15.27590821,"ECCENTRICITY":0.00010471,"INCLINATION":43.0021,"RA_OF_ASC_NODE":1.1587,"ARG_OF_PERICENTER":262.5592,"MEAN_ANOMALY":97.514,"EPHEMERIS_TYPE":0,"CLASSIFICATION_TYPE":"U","NORAD_CAT_ID":63994,"ELEMENT_SET_NO":999,"REV_AT_EPOCH":4690,"BSTAR":0.0014773636,"MEAN_MOTION_DOT":0.00040629,"MEAN_MOTION_DDOT":0}]
